<?xml version="1.0" encoding="UTF-8" standalone="no" ?>
<gpx xmlns="http://www.topografix.com/GPX/1/1" creator="MapSource 6.16.3" version="1.1" xmlns:xsi="http://www.w3.org/2001/XMLSchema-instance" xsi:schemaLocation="http://www.topografix.com/GPX/1/1 http://www.topografix.com/GPX/1/1/gpx.xsd">

  <metadata>
    <link href="http://www.garmin.com">
      <text>Garmin International</text>
    </link>
    <time>2024-07-10T13:38:36Z</time>
    <bounds maxlat="48.772613732144237" maxlon="11.43257855437696" minlat="48.757179714739323" minlon="11.412072479724884"/>
  </metadata>

  <trk>
    <name>Aktueller Track: 10 JUL 2024 11:49</name>
    <extensions>
      <gpxx:TrackExtension xmlns:gpxx="http://www.garmin.com/xmlschemas/GpxExtensions/v3">
        <gpxx:DisplayColor>Red</gpxx:DisplayColor>
      </gpxx:TrackExtension>
    </extensions>
    <trkseg>
      <trkpt lat="48.770769378170371" lon="11.431052545085549">
        <ele>415.91000000000003</ele>
        <time>2024-07-10T09:49:36Z</time>
      </trkpt>
      <trkpt lat="48.770764600485563" lon="11.431053802371025">
        <ele>415.91000000000003</ele>
        <time>2024-07-10T09:49:37Z</time>
      </trkpt>
      <trkpt lat="48.770750183612108" lon="11.4310516230762">
        <ele>407.74000000000001</ele>
        <time>2024-07-10T09:49:41Z</time>
      </trkpt>
      <trkpt lat="48.770748004317284" lon="11.431049276143312">
        <ele>408.22000000000003</ele>
        <time>2024-07-10T09:49:42Z</time>
      </trkpt>
      <trkpt lat="48.770733252167702" lon="11.431032931432128">
        <ele>408.69999999999999</ele>
        <time>2024-07-10T09:50:05Z</time>
      </trkpt>
      <trkpt lat="48.770799385383725" lon="11.430975180119276">
        <ele>408.22000000000003</ele>
        <time>2024-07-10T09:50:24Z</time>
      </trkpt>
      <trkpt lat="48.770807180553675" lon="11.43103108741343">
        <ele>407.74000000000001</ele>
        <time>2024-07-10T09:50:42Z</time>
      </trkpt>
      <trkpt lat="48.770875744521618" lon="11.43095632083714">
        <ele>407.74000000000001</ele>
        <time>2024-07-10T09:50:58Z</time>
      </trkpt>
      <trkpt lat="48.770899716764688" lon="11.430771918967366">
        <ele>408.22000000000003</ele>
        <time>2024-07-10T09:51:17Z</time>
      </trkpt>
      <trkpt lat="48.770933663472533" lon="11.430657338351011">
        <ele>408.69999999999999</ele>
        <time>2024-07-10T09:51:31Z</time>
      </trkpt>
      <trkpt lat="48.7709457334131" lon="11.430153837427497">
        <ele>409.18000000000001</ele>
        <time>2024-07-10T09:51:50Z</time>
      </trkpt>
      <trkpt lat="48.771024271845818" lon="11.429990138858557">
        <ele>409.18000000000001</ele>
        <time>2024-07-10T09:52:01Z</time>
      </trkpt>
      <trkpt lat="48.771053859964013" lon="11.42968981526792">
        <ele>409.18000000000001</ele>
        <time>2024-07-10T09:52:18Z</time>
      </trkpt>
      <trkpt lat="48.771058637648821" lon="11.42960331402719">
        <ele>409.18000000000001</ele>
        <time>2024-07-10T09:52:23Z</time>
      </trkpt>
      <trkpt lat="48.771116053685546" lon="11.429283460602164">
        <ele>409.18000000000001</ele>
        <time>2024-07-10T09:52:45Z</time>
      </trkpt>
      <trkpt lat="48.771146312355995" lon="11.429152367636561">
        <ele>409.18000000000001</ele>
        <time>2024-07-10T09:52:50Z</time>
      </trkpt>
      <trkpt lat="48.771194089204073" lon="11.428750539198518">
        <ele>409.18000000000001</ele>
        <time>2024-07-10T09:53:09Z</time>
      </trkpt>
      <trkpt lat="48.77113482914865" lon="11.428401935845613">
        <ele>408.22000000000003</ele>
        <time>2024-07-10T09:53:26Z</time>
      </trkpt>
      <trkpt lat="48.771100714802742" lon="11.428118627518415">
        <ele>407.74000000000001</ele>
        <time>2024-07-10T09:53:44Z</time>
      </trkpt>
      <trkpt lat="48.771236669272184" lon="11.427783770486712">
        <ele>408.69999999999999</ele>
        <time>2024-07-10T09:54:04Z</time>
      </trkpt>
      <trkpt lat="48.771335827186704" lon="11.427590064704418">
        <ele>407.74000000000001</ele>
        <time>2024-07-10T09:54:20Z</time>
      </trkpt>
      <trkpt lat="48.771424926817417" lon="11.427367525175214">
        <ele>408.22000000000003</ele>
        <time>2024-07-10T09:54:39Z</time>
      </trkpt>
      <trkpt lat="48.771431129425764" lon="11.427090084180236">
        <ele>408.69999999999999</ele>
        <time>2024-07-10T09:54:59Z</time>
      </trkpt>
      <trkpt lat="48.771389974281192" lon="11.426883051171899">
        <ele>409.18000000000001</ele>
        <time>2024-07-10T09:55:17Z</time>
      </trkpt>
      <trkpt lat="48.77138058654964" lon="11.426599742844701">
        <ele>409.18000000000001</ele>
        <time>2024-07-10T09:55:36Z</time>
      </trkpt>
      <trkpt lat="48.771378071978688" lon="11.42631433904171">
        <ele>410.13999999999999</ele>
        <time>2024-07-10T09:55:51Z</time>
      </trkpt>
      <trkpt lat="48.771537579596043" lon="11.425976799800992">
        <ele>410.62</ele>
        <time>2024-07-10T09:56:11Z</time>
      </trkpt>
      <trkpt lat="48.771641850471497" lon="11.425816202536225">
        <ele>411.57999999999998</ele>
        <time>2024-07-10T09:56:31Z</time>
      </trkpt>
      <trkpt lat="48.771871514618397" lon="11.425714697688818">
        <ele>411.10000000000002</ele>
        <time>2024-07-10T09:56:49Z</time>
      </trkpt>
      <trkpt lat="48.771959692239761" lon="11.425686199218035">
        <ele>412.06</ele>
        <time>2024-07-10T09:57:05Z</time>
      </trkpt>
      <trkpt lat="48.772100592032075" lon="11.425736574456096">
        <ele>412.54000000000002</ele>
        <time>2024-07-10T09:57:20Z</time>
      </trkpt>
      <trkpt lat="48.772133365273476" lon="11.425693240016699">
        <ele>412.54000000000002</ele>
        <time>2024-07-10T09:57:22Z</time>
      </trkpt>
      <trkpt lat="48.772247945889831" lon="11.425469275563955">
        <ele>413.5</ele>
        <time>2024-07-10T09:57:37Z</time>
      </trkpt>
      <trkpt lat="48.772258423268795" lon="11.425125701352954">
        <ele>413.5</ele>
        <time>2024-07-10T09:57:54Z</time>
      </trkpt>
      <trkpt lat="48.772213496267796" lon="11.424836609512568">
        <ele>413.01999999999998</ele>
        <time>2024-07-10T09:58:11Z</time>
      </trkpt>
      <trkpt lat="48.772183237597346" lon="11.424824455752969">
        <ele>412.54000000000002</ele>
        <time>2024-07-10T09:58:37Z</time>
      </trkpt>
      <trkpt lat="48.772193379700184" lon="11.42485287040472">
        <ele>413.01999999999998</ele>
        <time>2024-07-10T09:58:47Z</time>
      </trkpt>
      <trkpt lat="48.772175945341587" lon="11.42464910633862">
        <ele>413.5</ele>
        <time>2024-07-10T09:59:37Z</time>
      </trkpt>
      <trkpt lat="48.772232690826058" lon="11.424293043091893">
        <ele>413.5</ele>
        <time>2024-07-10T09:59:54Z</time>
      </trkpt>
      <trkpt lat="48.772397395223379" lon="11.424043262377381">
        <ele>413.01999999999998</ele>
        <time>2024-07-10T10:00:13Z</time>
      </trkpt>
      <trkpt lat="48.772613732144237" lon="11.423721229657531">
        <ele>412.54000000000002</ele>
        <time>2024-07-10T10:00:40Z</time>
      </trkpt>
      <trkpt lat="48.772597219794989" lon="11.423289896920323">
        <ele>412.54000000000002</ele>
        <time>2024-07-10T10:01:02Z</time>
      </trkpt>
      <trkpt lat="48.772489931434393" lon="11.423079594969749">
        <ele>411.57999999999998</ele>
        <time>2024-07-10T10:01:21Z</time>
      </trkpt>
      <trkpt lat="48.772337296977639" lon="11.422781031578779">
        <ele>411.57999999999998</ele>
        <time>2024-07-10T10:01:48Z</time>
      </trkpt>
      <trkpt lat="48.772127917036414" lon="11.42242630943656">
        <ele>410.62</ele>
        <time>2024-07-10T10:02:12Z</time>
      </trkpt>
      <trkpt lat="48.772075781598687" lon="11.421989277005196">
        <ele>410.62</ele>
        <time>2024-07-10T10:02:36Z</time>
      </trkpt>
      <trkpt lat="48.772087683901191" lon="11.421738658100367">
        <ele>410.13999999999999</ele>
        <time>2024-07-10T10:03:00Z</time>
      </trkpt>
      <trkpt lat="48.771977042779326" lon="11.421385193243623">
        <ele>407.74000000000001</ele>
        <time>2024-07-10T10:05:29Z</time>
      </trkpt>
      <trkpt lat="48.77196648158133" lon="11.421031057834625">
        <ele>406.76999999999998</ele>
        <time>2024-07-10T10:05:50Z</time>
      </trkpt>
      <trkpt lat="48.77196061424911" lon="11.420676922425628">
        <ele>405.81</ele>
        <time>2024-07-10T10:06:09Z</time>
      </trkpt>
      <trkpt lat="48.771954327821732" lon="11.420392272993922">
        <ele>405.32999999999998</ele>
        <time>2024-07-10T10:06:27Z</time>
      </trkpt>
      <trkpt lat="48.771899761632085" lon="11.420250115916133">
        <ele>404.85000000000002</ele>
        <time>2024-07-10T10:06:38Z</time>
      </trkpt>
      <trkpt lat="48.771795826032758" lon="11.420158836990595">
        <ele>404.85000000000002</ele>
        <time>2024-07-10T10:06:49Z</time>
      </trkpt>
      <trkpt lat="48.77176271751523" lon="11.420004609972239">
        <ele>404.37</ele>
        <time>2024-07-10T10:06:57Z</time>
      </trkpt>
      <trkpt lat="48.771722903475165" lon="11.419819034636021">
        <ele>404.37</ele>
        <time>2024-07-10T10:07:08Z</time>
      </trkpt>
      <trkpt lat="48.771629277616739" lon="11.419584341347218">
        <ele>403.41000000000003</ele>
        <time>2024-07-10T10:08:15Z</time>
      </trkpt>
      <trkpt lat="48.771603712812066" lon="11.419456182047725">
        <ele>402.93000000000001</ele>
        <time>2024-07-10T10:08:26Z</time>
      </trkpt>
      <trkpt lat="48.771498184651136" lon="11.419232552871108">
        <ele>403.88999999999999</ele>
        <time>2024-07-10T10:08:43Z</time>
      </trkpt>
      <trkpt lat="48.77133809030056" lon="11.418961985036731">
        <ele>403.88999999999999</ele>
        <time>2024-07-10T10:09:01Z</time>
      </trkpt>
      <trkpt lat="48.771236417815089" lon="11.418665433302522">
        <ele>404.37</ele>
        <time>2024-07-10T10:09:20Z</time>
      </trkpt>
      <trkpt lat="48.771168775856495" lon="11.418363517150283">
        <ele>404.85000000000002</ele>
        <time>2024-07-10T10:09:38Z</time>
      </trkpt>
      <trkpt lat="48.77104002982378" lon="11.41804919578135">
        <ele>404.85000000000002</ele>
        <time>2024-07-10T10:10:02Z</time>
      </trkpt>
      <trkpt lat="48.77091052941978" lon="11.417903769761324">
        <ele>403.88999999999999</ele>
        <time>2024-07-10T10:10:19Z</time>
      </trkpt>
      <trkpt lat="48.770783459767699" lon="11.41773696988821">
        <ele>402.44999999999999</ele>
        <time>2024-07-10T10:10:35Z</time>
      </trkpt>
      <trkpt lat="48.770728390663862" lon="11.417382080107927">
        <ele>402.93000000000001</ele>
        <time>2024-07-10T10:10:55Z</time>
      </trkpt>
      <trkpt lat="48.770782873034477" lon="11.417056694626808">
        <ele>403.41000000000003</ele>
        <time>2024-07-10T10:11:13Z</time>
      </trkpt>
      <trkpt lat="48.770848335698247" lon="11.416672803461552">
        <ele>402.93000000000001</ele>
        <time>2024-07-10T10:11:34Z</time>
      </trkpt>
      <trkpt lat="48.770744232460856" lon="11.416237698867917">
        <ele>402.93000000000001</ele>
        <time>2024-07-10T10:11:54Z</time>
      </trkpt>
      <trkpt lat="48.77055186778307" lon="11.416086405515671">
        <ele>402.44999999999999</ele>
        <time>2024-07-10T10:12:19Z</time>
      </trkpt>
      <trkpt lat="48.770421780645847" lon="11.416117250919342">
        <ele>401.97000000000003</ele>
        <time>2024-07-10T10:12:34Z</time>
      </trkpt>
      <trkpt lat="48.770322958007455" lon="11.416110964491963">
        <ele>401.97000000000003</ele>
        <time>2024-07-10T10:12:46Z</time>
      </trkpt>
      <trkpt lat="48.770116092637181" lon="11.416138960048556">
        <ele>401.49000000000001</ele>
        <time>2024-07-10T10:13:02Z</time>
      </trkpt>
      <trkpt lat="48.769927332177758" lon="11.41611716710031">
        <ele>401.49000000000001</ele>
        <time>2024-07-10T10:13:16Z</time>
      </trkpt>
      <trkpt lat="48.769834712147713" lon="11.415978446602821">
        <ele>401.00999999999999</ele>
        <time>2024-07-10T10:13:27Z</time>
      </trkpt>
      <trkpt lat="48.769769417122006" lon="11.415815250948071">
        <ele>401.00999999999999</ele>
        <time>2024-07-10T10:13:40Z</time>
      </trkpt>
      <trkpt lat="48.769639162346721" lon="11.415465222671628">
        <ele>401.00999999999999</ele>
        <time>2024-07-10T10:14:01Z</time>
      </trkpt>
      <trkpt lat="48.769514942541718" lon="11.415400933474302">
        <ele>392.36000000000001</ele>
        <time>2024-07-10T10:24:04Z</time>
      </trkpt>
      <trkpt lat="48.769523911178112" lon="11.415472263470292">
        <ele>392.36000000000001</ele>
        <time>2024-07-10T10:24:49Z</time>
      </trkpt>
      <trkpt lat="48.769388711079955" lon="11.415596064180136">
        <ele>390.91000000000003</ele>
        <time>2024-07-10T10:25:03Z</time>
      </trkpt>
      <trkpt lat="48.76921403221786" lon="11.415698155760765">
        <ele>389.94999999999999</ele>
        <time>2024-07-10T10:25:18Z</time>
      </trkpt>
      <trkpt lat="48.769076149910688" lon="11.415837630629539">
        <ele>389.47000000000003</ele>
        <time>2024-07-10T10:25:34Z</time>
      </trkpt>
      <trkpt lat="48.768935920670629" lon="11.415995629504323">
        <ele>388.50999999999999</ele>
        <time>2024-07-10T10:25:51Z</time>
      </trkpt>
      <trkpt lat="48.768834499642253" lon="11.416149102151394">
        <ele>388.99000000000001</ele>
        <time>2024-07-10T10:26:08Z</time>
      </trkpt>
      <trkpt lat="48.768738526850939" lon="11.416344400495291">
        <ele>388.50999999999999</ele>
        <time>2024-07-10T10:26:19Z</time>
      </trkpt>
      <trkpt lat="48.768682284280658" lon="11.416501896455884">
        <ele>388.02999999999997</ele>
        <time>2024-07-10T10:26:29Z</time>
      </trkpt>
      <trkpt lat="48.768641212955117" lon="11.416634414345026">
        <ele>388.02999999999997</ele>
        <time>2024-07-10T10:26:38Z</time>
      </trkpt>
      <trkpt lat="48.768576085567474" lon="11.416807835921645">
        <ele>388.02999999999997</ele>
        <time>2024-07-10T10:26:50Z</time>
      </trkpt>
      <trkpt lat="48.768472233787179" lon="11.416953345760703">
        <ele>387.55000000000001</ele>
        <time>2024-07-10T10:27:00Z</time>
      </trkpt>
      <trkpt lat="48.768339799717069" lon="11.41693658195436">
        <ele>387.55000000000001</ele>
        <time>2024-07-10T10:27:10Z</time>
      </trkpt>
      <trkpt lat="48.768234271556139" lon="11.416902467608452">
        <ele>387.55000000000001</ele>
        <time>2024-07-10T10:27:19Z</time>
      </trkpt>
      <trkpt lat="48.76812388189137" lon="11.416909592226148">
        <ele>388.02999999999997</ele>
        <time>2024-07-10T10:27:30Z</time>
      </trkpt>
      <trkpt lat="48.768029501661658" lon="11.416887631639838">
        <ele>387.06999999999999</ele>
        <time>2024-07-10T10:27:39Z</time>
      </trkpt>
      <trkpt lat="48.767932690680027" lon="11.416847817599773">
        <ele>387.55000000000001</ele>
        <time>2024-07-10T10:27:48Z</time>
      </trkpt>
      <trkpt lat="48.767833197489381" lon="11.416805321350694">
        <ele>387.55000000000001</ele>
        <time>2024-07-10T10:27:57Z</time>
      </trkpt>
      <trkpt lat="48.767727753147483" lon="11.416774811223149">
        <ele>387.55000000000001</ele>
        <time>2024-07-10T10:28:06Z</time>
      </trkpt>
      <trkpt lat="48.76762742176652" lon="11.416729548946023">
        <ele>388.02999999999997</ele>
        <time>2024-07-10T10:28:15Z</time>
      </trkpt>
      <trkpt lat="48.767553996294737" lon="11.416609939187765">
        <ele>388.02999999999997</ele>
        <time>2024-07-10T10:28:25Z</time>
      </trkpt>
      <trkpt lat="48.767484677955508" lon="11.416472643613815">
        <ele>387.55000000000001</ele>
        <time>2024-07-10T10:28:35Z</time>
      </trkpt>
      <trkpt lat="48.767418125644326" lon="11.416345993056893">
        <ele>387.55000000000001</ele>
        <time>2024-07-10T10:28:45Z</time>
      </trkpt>
      <trkpt lat="48.767380826175213" lon="11.416181623935699">
        <ele>387.06999999999999</ele>
        <time>2024-07-10T10:29:00Z</time>
      </trkpt>
      <trkpt lat="48.767288289964199" lon="11.416188580915332">
        <ele>387.55000000000001</ele>
        <time>2024-07-10T10:29:22Z</time>
      </trkpt>
      <trkpt lat="48.767368756234646" lon="11.41628036275506">
        <ele>387.55000000000001</ele>
        <time>2024-07-10T10:29:32Z</time>
      </trkpt>
      <trkpt lat="48.767457436770201" lon="11.416404666379094">
        <ele>387.06999999999999</ele>
        <time>2024-07-10T10:29:43Z</time>
      </trkpt>
      <trkpt lat="48.767500855028629" lon="11.416550008580089">
        <ele>387.06999999999999</ele>
        <time>2024-07-10T10:31:07Z</time>
      </trkpt>
      <trkpt lat="48.767579393461347" lon="11.416518576443195">
        <ele>386.58999999999997</ele>
        <time>2024-07-10T10:31:27Z</time>
      </trkpt>
      <trkpt lat="48.767652316018939" lon="11.416404834017158">
        <ele>386.11000000000001</ele>
        <time>2024-07-10T10:31:55Z</time>
      </trkpt>
      <trkpt lat="48.767693722620606" lon="11.416222862899303">
        <ele>386.58999999999997</ele>
        <time>2024-07-10T10:32:15Z</time>
      </trkpt>
      <trkpt lat="48.767721131443977" lon="11.415761103853583">
        <ele>386.11000000000001</ele>
        <time>2024-07-10T10:33:06Z</time>
      </trkpt>
      <trkpt lat="48.767789863049984" lon="11.415805779397488">
        <ele>386.11000000000001</ele>
        <time>2024-07-10T10:33:20Z</time>
      </trkpt>
      <trkpt lat="48.767763962969184" lon="11.415580054745078">
        <ele>385.63</ele>
        <time>2024-07-10T10:33:40Z</time>
      </trkpt>
      <trkpt lat="48.767751976847649" lon="11.415320383384824">
        <ele>385.14999999999998</ele>
        <time>2024-07-10T10:33:57Z</time>
      </trkpt>
      <trkpt lat="48.767825067043304" lon="11.415250059217215">
        <ele>385.63</ele>
        <time>2024-07-10T10:34:17Z</time>
      </trkpt>
      <trkpt lat="48.767897486686707" lon="11.415151990950108">
        <ele>385.63</ele>
        <time>2024-07-10T10:34:27Z</time>
      </trkpt>
      <trkpt lat="48.767859013751149" lon="11.414703223854303">
        <ele>385.63</ele>
        <time>2024-07-10T10:34:43Z</time>
      </trkpt>
      <trkpt lat="48.767921794205904" lon="11.4145721308887">
        <ele>386.11000000000001</ele>
        <time>2024-07-10T10:34:57Z</time>
      </trkpt>
      <trkpt lat="48.767950627952814" lon="11.414367109537125">
        <ele>386.11000000000001</ele>
        <time>2024-07-10T10:35:11Z</time>
      </trkpt>
      <trkpt lat="48.768010474741459" lon="11.414159154519439">
        <ele>386.11000000000001</ele>
        <time>2024-07-10T10:35:25Z</time>
      </trkpt>
      <trkpt lat="48.768144669011235" lon="11.41401750035584">
        <ele>386.11000000000001</ele>
        <time>2024-07-10T10:35:39Z</time>
      </trkpt>
      <trkpt lat="48.768282467499375" lon="11.413821699097753">
        <ele>386.11000000000001</ele>
        <time>2024-07-10T10:35:55Z</time>
      </trkpt>
      <trkpt lat="48.768208790570498" lon="11.413710555061698">
        <ele>387.06999999999999</ele>
        <time>2024-07-10T10:36:13Z</time>
      </trkpt>
      <trkpt lat="48.768023885786533" lon="11.413685157895088">
        <ele>387.55000000000001</ele>
        <time>2024-07-10T10:36:29Z</time>
      </trkpt>
      <trkpt lat="48.767843591049314" lon="11.413548365235329">
        <ele>388.02999999999997</ele>
        <time>2024-07-10T10:36:56Z</time>
      </trkpt>
      <trkpt lat="48.767703948542476" lon="11.413434706628323">
        <ele>388.50999999999999</ele>
        <time>2024-07-10T10:37:10Z</time>
      </trkpt>
      <trkpt lat="48.767574280500412" lon="11.413345187902451">
        <ele>388.50999999999999</ele>
        <time>2024-07-10T10:37:26Z</time>
      </trkpt>
      <trkpt lat="48.767411839216948" lon="11.413318868726492">
        <ele>388.50999999999999</ele>
        <time>2024-07-10T10:37:41Z</time>
      </trkpt>
      <trkpt lat="48.767261551693082" lon="11.413265727460384">
        <ele>388.50999999999999</ele>
        <time>2024-07-10T10:37:55Z</time>
      </trkpt>
      <trkpt lat="48.767122412100434" lon="11.41322591342032">
        <ele>388.02999999999997</ele>
        <time>2024-07-10T10:38:06Z</time>
      </trkpt>
      <trkpt lat="48.766985284164548" lon="11.413143016397953">
        <ele>388.02999999999997</ele>
        <time>2024-07-10T10:38:18Z</time>
      </trkpt>
      <trkpt lat="48.766900543123484" lon="11.412973450496793">
        <ele>388.02999999999997</ele>
        <time>2024-07-10T10:38:31Z</time>
      </trkpt>
      <trkpt lat="48.766818735748529" lon="11.412598444148898">
        <ele>388.02999999999997</ele>
        <time>2024-07-10T10:38:49Z</time>
      </trkpt>
      <trkpt lat="48.766699125990272" lon="11.412239614874125">
        <ele>388.02999999999997</ele>
        <time>2024-07-10T10:39:12Z</time>
      </trkpt>
      <trkpt lat="48.766561411321163" lon="11.412100726738572">
        <ele>388.02999999999997</ele>
        <time>2024-07-10T10:39:28Z</time>
      </trkpt>
      <trkpt lat="48.766351528465748" lon="11.412072479724884">
        <ele>388.02999999999997</ele>
        <time>2024-07-10T10:39:51Z</time>
      </trkpt>
      <trkpt lat="48.766214149072766" lon="11.412189155817032">
        <ele>387.55000000000001</ele>
        <time>2024-07-10T10:40:05Z</time>
      </trkpt>
      <trkpt lat="48.766107698902488" lon="11.41233810223639">
        <ele>387.55000000000001</ele>
        <time>2024-07-10T10:40:18Z</time>
      </trkpt>
      <trkpt lat="48.766015833243728" lon="11.412470201030374">
        <ele>387.06999999999999</ele>
        <time>2024-07-10T10:40:29Z</time>
      </trkpt>
      <trkpt lat="48.765904102474451" lon="11.412594923749566">
        <ele>387.06999999999999</ele>
        <time>2024-07-10T10:40:42Z</time>
      </trkpt>
      <trkpt lat="48.765780217945576" lon="11.412677736952901">
        <ele>387.06999999999999</ele>
        <time>2024-07-10T10:40:53Z</time>
      </trkpt>
      <trkpt lat="48.765589110553265" lon="11.412651669234037">
        <ele>387.06999999999999</ele>
        <time>2024-07-10T10:41:10Z</time>
      </trkpt>
      <trkpt lat="48.765408815816045" lon="11.412513786926866">
        <ele>386.11000000000001</ele>
        <time>2024-07-10T10:41:27Z</time>
      </trkpt>
      <trkpt lat="48.76526053994894" lon="11.412587044760585">
        <ele>385.63</ele>
        <time>2024-07-10T10:41:41Z</time>
      </trkpt>
      <trkpt lat="48.765123998746276" lon="11.412682766094804">
        <ele>385.14999999999998</ele>
        <time>2024-07-10T10:41:55Z</time>
      </trkpt>
      <trkpt lat="48.765020230785012" lon="11.412779660895467">
        <ele>384.18000000000001</ele>
        <time>2024-07-10T10:42:05Z</time>
      </trkpt>
      <trkpt lat="48.764906236901879" lon="11.412757700309157">
        <ele>384.18000000000001</ele>
        <time>2024-07-10T10:42:34Z</time>
      </trkpt>
      <trkpt lat="48.764929622411728" lon="11.412687040865421">
        <ele>383.69999999999999</ele>
        <time>2024-07-10T10:43:07Z</time>
      </trkpt>
      <trkpt lat="48.764953343197703" lon="11.412554522976279">
        <ele>384.18000000000001</ele>
        <time>2024-07-10T10:43:27Z</time>
      </trkpt>
      <trkpt lat="48.764779502525926" lon="11.412772620096803">
        <ele>383.69999999999999</ele>
        <time>2024-07-10T10:43:39Z</time>
      </trkpt>
      <trkpt lat="48.76470984891057" lon="11.412760382518172">
        <ele>384.18000000000001</ele>
        <time>2024-07-10T10:43:50Z</time>
      </trkpt>
      <trkpt lat="48.764608511701226" lon="11.412697182968259">
        <ele>385.14999999999998</ele>
        <time>2024-07-10T10:44:03Z</time>
      </trkpt>
      <trkpt lat="48.764454033225775" lon="11.412628535181284">
        <ele>385.63</ele>
        <time>2024-07-10T10:44:18Z</time>
      </trkpt>
      <trkpt lat="48.764289915561676" lon="11.412575393915176">
        <ele>385.63</ele>
        <time>2024-07-10T10:44:34Z</time>
      </trkpt>
      <trkpt lat="48.764118421822786" lon="11.412657452747226">
        <ele>384.66000000000003</ele>
        <time>2024-07-10T10:44:49Z</time>
      </trkpt>
      <trkpt lat="48.763939384371042" lon="11.412837160751224">
        <ele>384.18000000000001</ele>
        <time>2024-07-10T10:45:07Z</time>
      </trkpt>
      <trkpt lat="48.76377509906888" lon="11.413174532353878">
        <ele>384.18000000000001</ele>
        <time>2024-07-10T10:45:26Z</time>
      </trkpt>
      <trkpt lat="48.76370033249259" lon="11.413411069661379">
        <ele>383.69999999999999</ele>
        <time>2024-07-10T10:45:45Z</time>
      </trkpt>
      <trkpt lat="48.763572508469224" lon="11.413666130974889">
        <ele>381.77999999999997</ele>
        <time>2024-07-10T10:46:03Z</time>
      </trkpt>
      <trkpt lat="48.763385340571404" lon="11.413626568391919">
        <ele>381.30000000000001</ele>
        <time>2024-07-10T10:46:17Z</time>
      </trkpt>
      <trkpt lat="48.763268496841192" lon="11.41353034414351">
        <ele>380.81999999999999</ele>
        <time>2024-07-10T10:46:30Z</time>
      </trkpt>
      <trkpt lat="48.763125753030181" lon="11.413706531748176">
        <ele>380.33999999999997</ele>
        <time>2024-07-10T10:46:48Z</time>
      </trkpt>
      <trkpt lat="48.763040592893958" lon="11.413851790130138">
        <ele>380.81999999999999</ele>
        <time>2024-07-10T10:47:00Z</time>
      </trkpt>
      <trkpt lat="48.762941267341375" lon="11.413975590839982">
        <ele>381.30000000000001</ele>
        <time>2024-07-10T10:47:13Z</time>
      </trkpt>
      <trkpt lat="48.762817969545722" lon="11.414150856435299">
        <ele>380.81999999999999</ele>
        <time>2024-07-10T10:47:27Z</time>
      </trkpt>
      <trkpt lat="48.762717973440886" lon="11.41429116949439">
        <ele>381.30000000000001</ele>
        <time>2024-07-10T10:47:50Z</time>
      </trkpt>
      <trkpt lat="48.762641865760088" lon="11.414459142833948">
        <ele>381.30000000000001</ele>
        <time>2024-07-10T10:48:00Z</time>
      </trkpt>
      <trkpt lat="48.762582689523697" lon="11.414667852222919">
        <ele>381.30000000000001</ele>
        <time>2024-07-10T10:48:17Z</time>
      </trkpt>
      <trkpt lat="48.762498116120696" lon="11.414788048714399">
        <ele>381.30000000000001</ele>
        <time>2024-07-10T10:48:30Z</time>
      </trkpt>
      <trkpt lat="48.762378757819533" lon="11.414971696212888">
        <ele>381.30000000000001</ele>
        <time>2024-07-10T10:48:43Z</time>
      </trkpt>
      <trkpt lat="48.762244815006852" lon="11.415049815550447">
        <ele>381.30000000000001</ele>
        <time>2024-07-10T10:48:54Z</time>
      </trkpt>
      <trkpt lat="48.762121852487326" lon="11.415044283494353">
        <ele>379.86000000000001</ele>
        <time>2024-07-10T10:49:09Z</time>
      </trkpt>
      <trkpt lat="48.761978102847934" lon="11.415075212717056">
        <ele>378.89999999999998</ele>
        <time>2024-07-10T10:49:24Z</time>
      </trkpt>
      <trkpt lat="48.761847512796521" lon="11.415076972916722">
        <ele>378.89999999999998</ele>
        <time>2024-07-10T10:49:42Z</time>
      </trkpt>
      <trkpt lat="48.761705523356795" lon="11.415379056707025">
        <ele>378.89999999999998</ele>
        <time>2024-07-10T10:50:01Z</time>
      </trkpt>
      <trkpt lat="48.76159043982625" lon="11.41560017131269">
        <ele>379.38</ele>
        <time>2024-07-10T10:50:18Z</time>
      </trkpt>
      <trkpt lat="48.761501172557473" lon="11.415826734155416">
        <ele>380.33999999999997</ele>
        <time>2024-07-10T10:50:36Z</time>
      </trkpt>
      <trkpt lat="48.76143897883594" lon="11.416040807962418">
        <ele>380.33999999999997</ele>
        <time>2024-07-10T10:50:52Z</time>
      </trkpt>
      <trkpt lat="48.761335797607899" lon="11.4163663610816">
        <ele>380.33999999999997</ele>
        <time>2024-07-10T10:51:16Z</time>
      </trkpt>
      <trkpt lat="48.761227335780859" lon="11.416650926694274">
        <ele>380.81999999999999</ele>
        <time>2024-07-10T10:51:35Z</time>
      </trkpt>
      <trkpt lat="48.761038659140468" lon="11.416948651894927">
        <ele>381.30000000000001</ele>
        <time>2024-07-10T10:51:56Z</time>
      </trkpt>
      <trkpt lat="48.760837493464351" lon="11.417091898620129">
        <ele>381.30000000000001</ele>
        <time>2024-07-10T10:52:07Z</time>
      </trkpt>
      <trkpt lat="48.760719727724791" lon="11.417170520871878">
        <ele>381.77999999999997</ele>
        <time>2024-07-10T10:52:21Z</time>
      </trkpt>
      <trkpt lat="48.760543875396252" lon="11.417341427877545">
        <ele>382.25999999999999</ele>
        <time>2024-07-10T10:52:41Z</time>
      </trkpt>
      <trkpt lat="48.760443208739161" lon="11.417488614097238">
        <ele>382.25999999999999</ele>
        <time>2024-07-10T10:52:57Z</time>
      </trkpt>
      <trkpt lat="48.760275822132826" lon="11.417701849713922">
        <ele>382.74000000000001</ele>
        <time>2024-07-10T10:53:16Z</time>
      </trkpt>
      <trkpt lat="48.760197283700109" lon="11.417906871065497">
        <ele>382.74000000000001</ele>
        <time>2024-07-10T10:53:32Z</time>
      </trkpt>
      <trkpt lat="48.760139364749193" lon="11.418224209919572">
        <ele>382.25999999999999</ele>
        <time>2024-07-10T10:53:51Z</time>
      </trkpt>
      <trkpt lat="48.760044816881418" lon="11.418447252362967">
        <ele>382.25999999999999</ele>
        <time>2024-07-10T10:54:05Z</time>
      </trkpt>
      <trkpt lat="48.759958986192942" lon="11.418729806318879">
        <ele>382.25999999999999</ele>
        <time>2024-07-10T10:54:23Z</time>
      </trkpt>
      <trkpt lat="48.759929817169905" lon="11.418997272849083">
        <ele>382.25999999999999</ele>
        <time>2024-07-10T10:54:42Z</time>
      </trkpt>
      <trkpt lat="48.759846920147538" lon="11.419212939217687">
        <ele>381.77999999999997</ele>
        <time>2024-07-10T10:54:56Z</time>
      </trkpt>
      <trkpt lat="48.759777853265405" lon="11.419331291690469">
        <ele>381.77999999999997</ele>
        <time>2024-07-10T10:55:10Z</time>
      </trkpt>
      <trkpt lat="48.75966620631516" lon="11.419460456818342">
        <ele>381.30000000000001</ele>
        <time>2024-07-10T10:55:26Z</time>
      </trkpt>
      <trkpt lat="48.759563947096467" lon="11.419633626937866">
        <ele>381.77999999999997</ele>
        <time>2024-07-10T10:55:40Z</time>
      </trkpt>
      <trkpt lat="48.759464370086789" lon="11.419802522286773">
        <ele>381.77999999999997</ele>
        <time>2024-07-10T10:55:56Z</time>
      </trkpt>
      <trkpt lat="48.759279130026698" lon="11.420157160609961">
        <ele>381.77999999999997</ele>
        <time>2024-07-10T10:56:21Z</time>
      </trkpt>
      <trkpt lat="48.759272759780288" lon="11.420106701552868">
        <ele>383.22000000000003</ele>
        <time>2024-07-10T11:00:08Z</time>
      </trkpt>
      <trkpt lat="48.759091710671782" lon="11.420336281880736">
        <ele>383.22000000000003</ele>
        <time>2024-07-10T11:00:23Z</time>
      </trkpt>
      <trkpt lat="48.758975202217698" lon="11.42053535208106">
        <ele>383.22000000000003</ele>
        <time>2024-07-10T11:00:41Z</time>
      </trkpt>
      <trkpt lat="48.758902279660106" lon="11.42078454606235">
        <ele>383.22000000000003</ele>
        <time>2024-07-10T11:00:57Z</time>
      </trkpt>
      <trkpt lat="48.75892055220902" lon="11.420990573242307">
        <ele>382.74000000000001</ele>
        <time>2024-07-10T11:01:15Z</time>
      </trkpt>
      <trkpt lat="48.758974196389318" lon="11.421187128871679">
        <ele>382.74000000000001</ele>
        <time>2024-07-10T11:01:29Z</time>
      </trkpt>
      <trkpt lat="48.758924994617701" lon="11.421421570703387">
        <ele>382.74000000000001</ele>
        <time>2024-07-10T11:01:42Z</time>
      </trkpt>
      <trkpt lat="48.758849641308188" lon="11.42169876024127">
        <ele>382.25999999999999</ele>
        <time>2024-07-10T11:01:59Z</time>
      </trkpt>
      <trkpt lat="48.758714944124222" lon="11.42192498780787">
        <ele>381.77999999999997</ele>
        <time>2024-07-10T11:02:25Z</time>
      </trkpt>
      <trkpt lat="48.758558118715882" lon="11.421983409672976">
        <ele>381.77999999999997</ele>
        <time>2024-07-10T11:02:40Z</time>
      </trkpt>
      <trkpt lat="48.758460385724902" lon="11.422026911750436">
        <ele>381.77999999999997</ele>
        <time>2024-07-10T11:02:50Z</time>
      </trkpt>
      <trkpt lat="48.758351504802704" lon="11.422075359150767">
        <ele>382.25999999999999</ele>
        <time>2024-07-10T11:03:01Z</time>
      </trkpt>
      <trkpt lat="48.758256873115897" lon="11.422124896198511">
        <ele>381.77999999999997</ele>
        <time>2024-07-10T11:03:11Z</time>
      </trkpt>
      <trkpt lat="48.758130976930261" lon="11.422289432957768">
        <ele>381.77999999999997</ele>
        <time>2024-07-10T11:03:26Z</time>
      </trkpt>
      <trkpt lat="48.758025281131268" lon="11.422576932236552">
        <ele>381.77999999999997</ele>
        <time>2024-07-10T11:03:44Z</time>
      </trkpt>
      <trkpt lat="48.757909024134278" lon="11.422800393775105">
        <ele>381.77999999999997</ele>
        <time>2024-07-10T11:04:01Z</time>
      </trkpt>
      <trkpt lat="48.757722107693553" lon="11.422876752912998">
        <ele>381.77999999999997</ele>
        <time>2024-07-10T11:04:14Z</time>
      </trkpt>
      <trkpt lat="48.757564108818769" lon="11.422993177548051">
        <ele>381.77999999999997</ele>
        <time>2024-07-10T11:04:29Z</time>
      </trkpt>
      <trkpt lat="48.75748204998672" lon="11.423373967409134">
        <ele>379.38</ele>
        <time>2024-07-10T11:04:52Z</time>
      </trkpt>
      <trkpt lat="48.757392531260848" lon="11.423618299886584">
        <ele>377.94</ele>
        <time>2024-07-10T11:05:07Z</time>
      </trkpt>
      <trkpt lat="48.75731885433197" lon="11.423690048977733">
        <ele>377.44999999999999</ele>
        <time>2024-07-10T11:05:19Z</time>
      </trkpt>
      <trkpt lat="48.757230676710606" lon="11.423757020384073">
        <ele>377.94</ele>
        <time>2024-07-10T11:05:27Z</time>
      </trkpt>
      <trkpt lat="48.757179714739323" lon="11.423801109194756">
        <ele>377.94</ele>
        <time>2024-07-10T11:05:50Z</time>
      </trkpt>
      <trkpt lat="48.757283398881555" lon="11.42380865290761">
        <ele>377.94</ele>
        <time>2024-07-10T11:07:13Z</time>
      </trkpt>
      <trkpt lat="48.75728415325284" lon="11.424117274582386">
        <ele>376.49000000000001</ele>
        <time>2024-07-10T11:07:28Z</time>
      </trkpt>
      <trkpt lat="48.757481295615435" lon="11.424222467467189">
        <ele>376.00999999999999</ele>
        <time>2024-07-10T11:07:45Z</time>
      </trkpt>
      <trkpt lat="48.757466292008758" lon="11.424305951222777">
        <ele>376.49000000000001</ele>
        <time>2024-07-10T11:08:34Z</time>
      </trkpt>
      <trkpt lat="48.757637031376362" lon="11.424511894583702">
        <ele>375.52999999999997</ele>
        <time>2024-07-10T11:08:48Z</time>
      </trkpt>
      <trkpt lat="48.757744571194053" lon="11.424687160179019">
        <ele>375.52999999999997</ele>
        <time>2024-07-10T11:09:05Z</time>
      </trkpt>
      <trkpt lat="48.757883626967669" lon="11.424855552613735">
        <ele>375.52999999999997</ele>
        <time>2024-07-10T11:09:20Z</time>
      </trkpt>
      <trkpt lat="48.758020084351301" lon="11.425008438527584">
        <ele>375.05000000000001</ele>
        <time>2024-07-10T11:09:34Z</time>
      </trkpt>
      <trkpt lat="48.75815293751657" lon="11.425164844840765">
        <ele>375.52999999999997</ele>
        <time>2024-07-10T11:09:48Z</time>
      </trkpt>
      <trkpt lat="48.758264416828752" lon="11.425331644713879">
        <ele>375.52999999999997</ele>
        <time>2024-07-10T11:10:03Z</time>
      </trkpt>
      <trkpt lat="48.758366256952286" lon="11.425456283614039">
        <ele>375.05000000000001</ele>
        <time>2024-07-10T11:10:16Z</time>
      </trkpt>
      <trkpt lat="48.75851453281939" lon="11.425601290538907">
        <ele>375.05000000000001</ele>
        <time>2024-07-10T11:10:30Z</time>
      </trkpt>
      <trkpt lat="48.758657528087497" lon="11.425732299685478">
        <ele>374.56999999999999</ele>
        <time>2024-07-10T11:10:44Z</time>
      </trkpt>
      <trkpt lat="48.758820137009025" lon="11.425905050709844">
        <ele>374.56999999999999</ele>
        <time>2024-07-10T11:11:01Z</time>
      </trkpt>
      <trkpt lat="48.758965814486146" lon="11.4260627143085">
        <ele>374.08999999999997</ele>
        <time>2024-07-10T11:11:18Z</time>
      </trkpt>
      <trkpt lat="48.759111240506172" lon="11.426173523068428">
        <ele>373.61000000000001</ele>
        <time>2024-07-10T11:11:31Z</time>
      </trkpt>
      <trkpt lat="48.759208470582962" lon="11.426273183897138">
        <ele>373.61000000000001</ele>
        <time>2024-07-10T11:11:42Z</time>
      </trkpt>
      <trkpt lat="48.759314082562923" lon="11.426361612975597">
        <ele>373.61000000000001</ele>
        <time>2024-07-10T11:11:54Z</time>
      </trkpt>
      <trkpt lat="48.759446684271097" lon="11.426500584930182">
        <ele>373.61000000000001</ele>
        <time>2024-07-10T11:12:06Z</time>
      </trkpt>
      <trkpt lat="48.759560007601976" lon="11.426609717309475">
        <ele>374.08999999999997</ele>
        <time>2024-07-10T11:12:17Z</time>
      </trkpt>
      <trkpt lat="48.759656483307481" lon="11.426723878830671">
        <ele>373.61000000000001</ele>
        <time>2024-07-10T11:12:29Z</time>
      </trkpt>
      <trkpt lat="48.759821522980928" lon="11.426858995109797">
        <ele>374.08999999999997</ele>
        <time>2024-07-10T11:12:45Z</time>
      </trkpt>
      <trkpt lat="48.759940965101123" lon="11.426974078640342">
        <ele>373.61000000000001</ele>
        <time>2024-07-10T11:12:58Z</time>
      </trkpt>
      <trkpt lat="48.760066609829664" lon="11.427067201584578">
        <ele>373.61000000000001</ele>
        <time>2024-07-10T11:13:11Z</time>
      </trkpt>
      <trkpt lat="48.760175323113799" lon="11.427193013951182">
        <ele>373.13</ele>
        <time>2024-07-10T11:13:22Z</time>
      </trkpt>
      <trkpt lat="48.760282695293427" lon="11.427299296483397">
        <ele>372.64999999999998</ele>
        <time>2024-07-10T11:13:34Z</time>
      </trkpt>
      <trkpt lat="48.760445304214954" lon="11.427354700863361">
        <ele>372.64999999999998</ele>
        <time>2024-07-10T11:13:46Z</time>
      </trkpt>
      <trkpt lat="48.760551670566201" lon="11.427427288144827">
        <ele>372.64999999999998</ele>
        <time>2024-07-10T11:14:00Z</time>
      </trkpt>
      <trkpt lat="48.76068502664566" lon="11.427486296743155">
        <ele>372.64999999999998</ele>
        <time>2024-07-10T11:14:15Z</time>
      </trkpt>
      <trkpt lat="48.760804468765855" lon="11.427685786038637">
        <ele>372.64999999999998</ele>
        <time>2024-07-10T11:14:29Z</time>
      </trkpt>
      <trkpt lat="48.761015944182873" lon="11.427723336964846">
        <ele>373.13</ele>
        <time>2024-07-10T11:14:46Z</time>
      </trkpt>
      <trkpt lat="48.761172853410244" lon="11.427782597020268">
        <ele>372.64999999999998</ele>
        <time>2024-07-10T11:14:59Z</time>
      </trkpt>
      <trkpt lat="48.761261617764831" lon="11.427907319739461">
        <ele>372.17000000000002</ele>
        <time>2024-07-10T11:15:12Z</time>
      </trkpt>
      <trkpt lat="48.761372175067663" lon="11.428030282258987">
        <ele>372.64999999999998</ele>
        <time>2024-07-10T11:15:23Z</time>
      </trkpt>
      <trkpt lat="48.761474937200546" lon="11.428152322769165">
        <ele>372.17000000000002</ele>
        <time>2024-07-10T11:15:35Z</time>
      </trkpt>
      <trkpt lat="48.761574346572161" lon="11.428315518423915">
        <ele>372.17000000000002</ele>
        <time>2024-07-10T11:15:47Z</time>
      </trkpt>
      <trkpt lat="48.761698566377163" lon="11.428443342447281">
        <ele>371.69</ele>
        <time>2024-07-10T11:15:59Z</time>
      </trkpt>
      <trkpt lat="48.761863270774484" lon="11.428601844236255">
        <ele>372.17000000000002</ele>
        <time>2024-07-10T11:16:15Z</time>
      </trkpt>
      <trkpt lat="48.7619832996279" lon="11.428739475086331">
        <ele>371.69</ele>
        <time>2024-07-10T11:16:28Z</time>
      </trkpt>
      <trkpt lat="48.762096539139748" lon="11.428872663527727">
        <ele>371.20999999999998</ele>
        <time>2024-07-10T11:16:42Z</time>
      </trkpt>
      <trkpt lat="48.762166276574135" lon="11.429037116467953">
        <ele>371.20999999999998</ele>
        <time>2024-07-10T11:17:12Z</time>
      </trkpt>
      <trkpt lat="48.762245485559106" lon="11.429245993494987">
        <ele>370.73000000000002</ele>
        <time>2024-07-10T11:17:46Z</time>
      </trkpt>
      <trkpt lat="48.762339362874627" lon="11.429360825568438">
        <ele>370.73000000000002</ele>
        <time>2024-07-10T11:18:01Z</time>
      </trkpt>
      <trkpt lat="48.762445142492652" lon="11.429533492773771">
        <ele>370.73000000000002</ele>
        <time>2024-07-10T11:18:20Z</time>
      </trkpt>
      <trkpt lat="48.762476406991482" lon="11.429658131673932">
        <ele>370.73000000000002</ele>
        <time>2024-07-10T11:18:54Z</time>
      </trkpt>
      <trkpt lat="48.762431647628546" lon="11.429535755887628">
        <ele>370.73000000000002</ele>
        <time>2024-07-10T11:19:51Z</time>
      </trkpt>
      <trkpt lat="48.762382278218865" lon="11.429528295993805">
        <ele>370.73000000000002</ele>
        <time>2024-07-10T11:21:07Z</time>
      </trkpt>
      <trkpt lat="48.762605991214514" lon="11.429096292704344">
        <ele>371.20999999999998</ele>
        <time>2024-07-10T11:23:10Z</time>
      </trkpt>
      <trkpt lat="48.762563830241561" lon="11.428849445655942">
        <ele>372.64999999999998</ele>
        <time>2024-07-10T11:23:25Z</time>
      </trkpt>
      <trkpt lat="48.762503648176789" lon="11.428592624142766">
        <ele>374.08999999999997</ele>
        <time>2024-07-10T11:23:39Z</time>
      </trkpt>
      <trkpt lat="48.762513371184468" lon="11.428405623883009">
        <ele>374.56999999999999</ele>
        <time>2024-07-10T11:23:50Z</time>
      </trkpt>
      <trkpt lat="48.762573888525367" lon="11.42826346680522">
        <ele>374.56999999999999</ele>
        <time>2024-07-10T11:24:01Z</time>
      </trkpt>
      <trkpt lat="48.762669023126364" lon="11.428130613639951">
        <ele>374.08999999999997</ele>
        <time>2024-07-10T11:24:13Z</time>
      </trkpt>
      <trkpt lat="48.762788716703653" lon="11.428083591163158">
        <ele>374.56999999999999</ele>
        <time>2024-07-10T11:24:23Z</time>
      </trkpt>
      <trkpt lat="48.762905644252896" lon="11.428077640011907">
        <ele>375.05000000000001</ele>
        <time>2024-07-10T11:24:32Z</time>
      </trkpt>
      <trkpt lat="48.763008741661906" lon="11.428118627518415">
        <ele>374.56999999999999</ele>
        <time>2024-07-10T11:24:42Z</time>
      </trkpt>
      <trkpt lat="48.763146791607141" lon="11.428146036341786">
        <ele>375.05000000000001</ele>
        <time>2024-07-10T11:25:01Z</time>
      </trkpt>
      <trkpt lat="48.763281488791108" lon="11.428217198699713">
        <ele>375.52999999999997</ele>
        <time>2024-07-10T11:25:16Z</time>
      </trkpt>
      <trkpt lat="48.763413839042187" lon="11.428319877013564">
        <ele>375.52999999999997</ele>
        <time>2024-07-10T11:25:29Z</time>
      </trkpt>
      <trkpt lat="48.763547195121646" lon="11.428394978865981">
        <ele>377.44999999999999</ele>
        <time>2024-07-10T11:25:43Z</time>
      </trkpt>
      <trkpt lat="48.763624979183078" lon="11.428523389622569">
        <ele>378.42000000000002</ele>
        <time>2024-07-10T11:26:00Z</time>
      </trkpt>
      <trkpt lat="48.76370963640511" lon="11.428670827299356">
        <ele>377.94</ele>
        <time>2024-07-10T11:26:13Z</time>
      </trkpt>
      <trkpt lat="48.763796305283904" lon="11.428801333531737">
        <ele>377.94</ele>
        <time>2024-07-10T11:26:26Z</time>
      </trkpt>
      <trkpt lat="48.763882387429476" lon="11.42894365824759">
        <ele>377.94</ele>
        <time>2024-07-10T11:26:37Z</time>
      </trkpt>
      <trkpt lat="48.763974839821458" lon="11.429135520011187">
        <ele>377.94</ele>
        <time>2024-07-10T11:26:48Z</time>
      </trkpt>
      <trkpt lat="48.764040218666196" lon="11.429256638512015">
        <ele>378.42000000000002</ele>
        <time>2024-07-10T11:27:02Z</time>
      </trkpt>
      <trkpt lat="48.764223447069526" lon="11.429252782836556">
        <ele>378.89999999999998</ele>
        <time>2024-07-10T11:27:18Z</time>
      </trkpt>
      <trkpt lat="48.764270385727286" lon="11.429374488070607">
        <ele>378.89999999999998</ele>
        <time>2024-07-10T11:27:26Z</time>
      </trkpt>
      <trkpt lat="48.764325454831123" lon="11.429517986252904">
        <ele>378.89999999999998</ele>
        <time>2024-07-10T11:27:36Z</time>
      </trkpt>
      <trkpt lat="48.764412878081203" lon="11.429631561040878">
        <ele>379.38</ele>
        <time>2024-07-10T11:27:49Z</time>
      </trkpt>
      <trkpt lat="48.764545731246471" lon="11.429775562137365">
        <ele>378.42000000000002</ele>
        <time>2024-07-10T11:28:08Z</time>
      </trkpt>
      <trkpt lat="48.764686044305563" lon="11.429838174954057">
        <ele>378.42000000000002</ele>
        <time>2024-07-10T11:28:20Z</time>
      </trkpt>
      <trkpt lat="48.764748657122254" lon="11.430109916254878">
        <ele>378.89999999999998</ele>
        <time>2024-07-10T11:28:47Z</time>
      </trkpt>
      <trkpt lat="48.764827027916908" lon="11.43037386238575">
        <ele>379.38</ele>
        <time>2024-07-10T11:29:50Z</time>
      </trkpt>
      <trkpt lat="48.764931550249457" lon="11.43045692704618">
        <ele>378.89999999999998</ele>
        <time>2024-07-10T11:30:03Z</time>
      </trkpt>
      <trkpt lat="48.765048058703542" lon="11.43062355928123">
        <ele>378.89999999999998</ele>
        <time>2024-07-10T11:30:17Z</time>
      </trkpt>
      <trkpt lat="48.76509734429419" lon="11.430764207616448">
        <ele>379.38</ele>
        <time>2024-07-10T11:30:39Z</time>
      </trkpt>
      <trkpt lat="48.765328517183661" lon="11.431188499554992">
        <ele>379.38</ele>
        <time>2024-07-10T11:32:27Z</time>
      </trkpt>
      <trkpt lat="48.765394734218717" lon="11.431102165952325">
        <ele>379.38</ele>
        <time>2024-07-10T11:32:46Z</time>
      </trkpt>
      <trkpt lat="48.765462962910533" lon="11.431035446003079">
        <ele>380.33999999999997</ele>
        <time>2024-07-10T11:33:04Z</time>
      </trkpt>
      <trkpt lat="48.765597743913531" lon="11.430948274210095">
        <ele>380.33999999999997</ele>
        <time>2024-07-10T11:33:18Z</time>
      </trkpt>
      <trkpt lat="48.765709893777966" lon="11.430890774354339">
        <ele>380.33999999999997</ele>
        <time>2024-07-10T11:33:28Z</time>
      </trkpt>
      <trkpt lat="48.765823803842068" lon="11.430760016664863">
        <ele>380.81999999999999</ele>
        <time>2024-07-10T11:33:39Z</time>
      </trkpt>
      <trkpt lat="48.765960931777954" lon="11.430628001689911">
        <ele>380.33999999999997</ele>
        <time>2024-07-10T11:33:52Z</time>
      </trkpt>
      <trkpt lat="48.766105519607663" lon="11.430581146851182">
        <ele>380.81999999999999</ele>
        <time>2024-07-10T11:34:10Z</time>
      </trkpt>
      <trkpt lat="48.766320431604981" lon="11.430400349199772">
        <ele>380.33999999999997</ele>
        <time>2024-07-10T11:34:30Z</time>
      </trkpt>
      <trkpt lat="48.766445741057396" lon="11.430285181850195">
        <ele>380.33999999999997</ele>
        <time>2024-07-10T11:34:50Z</time>
      </trkpt>
      <trkpt lat="48.76662234775722" lon="11.43009876832366">
        <ele>380.33999999999997</ele>
        <time>2024-07-10T11:35:02Z</time>
      </trkpt>
      <trkpt lat="48.766788141801953" lon="11.42991897650063">
        <ele>380.81999999999999</ele>
        <time>2024-07-10T11:35:16Z</time>
      </trkpt>
      <trkpt lat="48.766904566437006" lon="11.429987037554383">
        <ele>380.81999999999999</ele>
        <time>2024-07-10T11:35:26Z</time>
      </trkpt>
      <trkpt lat="48.767080586403608" lon="11.430117040872574">
        <ele>380.81999999999999</ele>
        <time>2024-07-10T11:35:38Z</time>
      </trkpt>
      <trkpt lat="48.767122747376561" lon="11.430273279547691">
        <ele>380.33999999999997</ele>
        <time>2024-07-10T11:35:50Z</time>
      </trkpt>
      <trkpt lat="48.767076060175896" lon="11.430399930104613">
        <ele>380.33999999999997</ele>
        <time>2024-07-10T11:35:58Z</time>
      </trkpt>
      <trkpt lat="48.767036162316799" lon="11.430612998083234">
        <ele>379.86000000000001</ele>
        <time>2024-07-10T11:36:11Z</time>
      </trkpt>
      <trkpt lat="48.766985451802611" lon="11.430818857625127">
        <ele>379.86000000000001</ele>
        <time>2024-07-10T11:36:23Z</time>
      </trkpt>
      <trkpt lat="48.767020907253027" lon="11.430983981117606">
        <ele>379.86000000000001</ele>
        <time>2024-07-10T11:36:35Z</time>
      </trkpt>
      <trkpt lat="48.767037419602275" lon="11.431141896173358">
        <ele>379.38</ele>
        <time>2024-07-10T11:36:46Z</time>
      </trkpt>
      <trkpt lat="48.767130626365542" lon="11.431172490119934">
        <ele>378.89999999999998</ele>
        <time>2024-07-10T11:36:59Z</time>
      </trkpt>
      <trkpt lat="48.76724093221128" lon="11.431150529533625">
        <ele>378.42000000000002</ele>
        <time>2024-07-10T11:37:14Z</time>
      </trkpt>
      <trkpt lat="48.767352662980556" lon="11.431118175387383">
        <ele>378.89999999999998</ele>
        <time>2024-07-10T11:38:57Z</time>
      </trkpt>
      <trkpt lat="48.767587440088391" lon="11.430842243134975">
        <ele>378.42000000000002</ele>
        <time>2024-07-10T11:39:15Z</time>
      </trkpt>
      <trkpt lat="48.767737811431289" lon="11.430682735517621">
        <ele>378.42000000000002</ele>
        <time>2024-07-10T11:39:30Z</time>
      </trkpt>
      <trkpt lat="48.767837891355157" lon="11.430537309497595">
        <ele>378.89999999999998</ele>
        <time>2024-07-10T11:39:42Z</time>
      </trkpt>
      <trkpt lat="48.767925566062331" lon="11.43050679937005">
        <ele>378.89999999999998</ele>
        <time>2024-07-10T11:40:02Z</time>
      </trkpt>
      <trkpt lat="48.768335524946451" lon="11.430566981434822">
        <ele>378.42000000000002</ele>
        <time>2024-07-10T11:41:07Z</time>
      </trkpt>
      <trkpt lat="48.768380787223577" lon="11.430733529850841">
        <ele>377.94</ele>
        <time>2024-07-10T11:41:16Z</time>
      </trkpt>
      <trkpt lat="48.768363017588854" lon="11.430876860395074">
        <ele>377.44999999999999</ele>
        <time>2024-07-10T11:41:24Z</time>
      </trkpt>
      <trkpt lat="48.768391516059637" lon="11.430992614477873">
        <ele>377.44999999999999</ele>
        <time>2024-07-10T11:41:34Z</time>
      </trkpt>
      <trkpt lat="48.768439209088683" lon="11.431122533977032">
        <ele>376.97000000000003</ele>
        <time>2024-07-10T11:41:44Z</time>
      </trkpt>
      <trkpt lat="48.768484303727746" lon="11.431258320808411">
        <ele>377.44999999999999</ele>
        <time>2024-07-10T11:41:54Z</time>
      </trkpt>
      <trkpt lat="48.7685108743608" lon="11.431295955553651">
        <ele>377.44999999999999</ele>
        <time>2024-07-10T11:42:12Z</time>
      </trkpt>
      <trkpt lat="48.76850894652307" lon="11.432044375687838">
        <ele>377.44999999999999</ele>
        <time>2024-07-10T11:43:04Z</time>
      </trkpt>
      <trkpt lat="48.768684044480324" lon="11.431803982704878">
        <ele>377.94</ele>
        <time>2024-07-10T11:43:15Z</time>
      </trkpt>
      <trkpt lat="48.768754033371806" lon="11.43190766684711">
        <ele>377.94</ele>
        <time>2024-07-10T11:43:25Z</time>
      </trkpt>
      <trkpt lat="48.76880600117147" lon="11.432027360424399">
        <ele>377.94</ele>
        <time>2024-07-10T11:43:35Z</time>
      </trkpt>
      <trkpt lat="48.768868027254939" lon="11.432148478925228">
        <ele>378.42000000000002</ele>
        <time>2024-07-10T11:43:45Z</time>
      </trkpt>
      <trkpt lat="48.768915133550763" lon="11.432281918823719">
        <ele>378.42000000000002</ele>
        <time>2024-07-10T11:43:55Z</time>
      </trkpt>
      <trkpt lat="48.768965508788824" lon="11.432448383420706">
        <ele>378.42000000000002</ele>
        <time>2024-07-10T11:44:05Z</time>
      </trkpt>
      <trkpt lat="48.769088638946414" lon="11.432571010664105">
        <ele>378.42000000000002</ele>
        <time>2024-07-10T11:44:18Z</time>
      </trkpt>
      <trkpt lat="48.769077993929386" lon="11.43257855437696">
        <ele>378.42000000000002</ele>
        <time>2024-07-10T11:45:04Z</time>
      </trkpt>
      <trkpt lat="48.76913825981319" lon="11.432404294610023">
        <ele>377.44999999999999</ele>
        <time>2024-07-10T11:45:15Z</time>
      </trkpt>
      <trkpt lat="48.769204644486308" lon="11.432230370119214">
        <ele>377.44999999999999</ele>
        <time>2024-07-10T11:45:26Z</time>
      </trkpt>
      <trkpt lat="48.769269939512014" lon="11.43206206150353">
        <ele>377.94</ele>
        <time>2024-07-10T11:45:36Z</time>
      </trkpt>
      <trkpt lat="48.769321823492646" lon="11.431911773979664">
        <ele>377.94</ele>
        <time>2024-07-10T11:45:47Z</time>
      </trkpt>
      <trkpt lat="48.769534807652235" lon="11.43189400434494">
        <ele>377.44999999999999</ele>
        <time>2024-07-10T11:50:41Z</time>
      </trkpt>
      <trkpt lat="48.769591385498643" lon="11.431728880852461">
        <ele>376.97000000000003</ele>
        <time>2024-07-10T11:51:01Z</time>
      </trkpt>
      <trkpt lat="48.769703283905983" lon="11.431751763448119">
        <ele>377.44999999999999</ele>
        <time>2024-07-10T11:51:12Z</time>
      </trkpt>
      <trkpt lat="48.769790036603808" lon="11.431802893057466">
        <ele>376.97000000000003</ele>
        <time>2024-07-10T11:51:21Z</time>
      </trkpt>
      <trkpt lat="48.769893050193787" lon="11.431841952726245">
        <ele>377.94</ele>
        <time>2024-07-10T11:51:31Z</time>
      </trkpt>
      <trkpt lat="48.770002098754048" lon="11.431892747059464">
        <ele>379.86000000000001</ele>
        <time>2024-07-10T11:51:42Z</time>
      </trkpt>
      <trkpt lat="48.770108548924327" lon="11.431939015164971">
        <ele>379.86000000000001</ele>
        <time>2024-07-10T11:51:55Z</time>
      </trkpt>
      <trkpt lat="48.770213490352035" lon="11.431922083720565">
        <ele>380.33999999999997</ele>
        <time>2024-07-10T11:52:05Z</time>
      </trkpt>
      <trkpt lat="48.770239474251866" lon="11.431774729862809">
        <ele>380.81999999999999</ele>
        <time>2024-07-10T11:52:17Z</time>
      </trkpt>
      <trkpt lat="48.770276354625821" lon="11.431596698239446">
        <ele>379.38</ele>
        <time>2024-07-10T11:52:27Z</time>
      </trkpt>
      <trkpt lat="48.770305356010795" lon="11.431428724899888">
        <ele>379.86000000000001</ele>
        <time>2024-07-10T11:52:39Z</time>
      </trkpt>
      <trkpt lat="48.770357072353363" lon="11.431232923641801">
        <ele>377.44999999999999</ele>
        <time>2024-07-10T11:52:54Z</time>
      </trkpt>
      <trkpt lat="48.770374255254865" lon="11.431025303900242">
        <ele>375.05000000000001</ele>
        <time>2024-07-10T11:53:24Z</time>
      </trkpt>
      <trkpt lat="48.770365118980408" lon="11.430950621142983">
        <ele>376.00999999999999</ele>
        <time>2024-07-10T11:54:16Z</time>
      </trkpt>
    </trkseg>
  </trk>

</gpx>
